GLOBALSTAR M068         
1 32266U 07048D   24284.53053691 -.00000055  00000+0  27140-3 0  9997
2 32266  51.9911 343.2839 0000532 318.1410 182.1370 12.62802434786013
GLOBALSTAR M079         
1 37188U 10054A   24284.45492128 -.00000069  00000+0  19476-3 0  9997
2 37188  52.0026 180.0130 0001052  79.0114  92.1030 12.62265586644919
GLOBALSTAR M074         
1 37189U 10054B   24284.48143963 -.00000070  00000+0  18662-3 0  9999
2 37189  52.0009 179.2888 0000649  82.0860  92.5520 12.62257311645527
GLOBALSTAR M076         
1 37190U 10054C   24284.88363743 -.00000074  00000+0  16362-3 0  9994
2 37190  52.0020 178.2200 0000880  96.4418 342.1216 12.62271476645652
GLOBALSTAR M077         
1 37191U 10054D   24284.54375582 -.00000087  00000+0  93846-4 0  9999
2 37191  52.0053 136.0371 0000876  83.5130 311.0209 12.62265310645627
GLOBALSTAR M075         
1 37192U 10054E   24284.02539365 -.00000059  00000+0  25067-3 0  9992
2 37192  51.9942 223.2246 0000649  74.7945   4.0136 12.62285811644251
GLOBALSTAR M073         
1 37193U 10054F   24284.57168977 -.00000078  00000+0  14529-3 0  9992
2 37193  52.0038 135.1908 0000917  94.7356 307.2389 12.62271089646311
GLOBALSTAR M083         
1 37739U 11033A   24284.84611840 -.00000081  00000+0  12493-3 0  9990
2 37739  51.9849  83.4242 0000952  87.3485  62.8885 12.62266000615724
GLOBALSTAR M088         
1 37740U 11033B   24284.47254478 -.00000071  00000+0  18123-3 0  9996
2 37740  51.9763 350.2659 0000579  94.4075 278.4720 12.62262896610869
GLOBALSTAR M091         
1 37741U 11033C   24284.40716441 -.00000068  00000+0  20223-3 0  9993
2 37741  52.0004 313.5772 0000629  69.0305 304.6176 12.62268241611642
GLOBALSTAR M085         
1 37742U 11033D   24284.42629705 -.00000063  00000+0  22546-3 0  9997
2 37742  51.9857 264.7749 0000685  56.6801 105.2464 12.62267051612153
GLOBALSTAR M081         
1 37743U 11033E   24284.45390274 -.00000065  00000+0  21477-3 0  9991
2 37743  51.9952 267.3232 0000730  78.1551  89.4907 12.62270705612300
GLOBALSTAR M089         
1 37744U 11033F   24284.57378738 -.00000073  00000+0  17246-3 0  9994
2 37744  51.9923 221.2346 0000510  97.0357  74.0178 12.62270268613163
GLOBALSTAR M084         
1 38040U 11080A   24284.47670435 -.00000087  00000+0  92913-4 0  9994
2 38040  51.9994  88.6820 0000667 115.5610 274.8874 12.62268523591130
GLOBALSTAR M080         
1 38041U 11080B   24284.44898462 -.00000084  00000+0  10877-3 0  9999
2 38041  52.0048  90.2861 0000939 123.0369 261.1033 12.62266848591251
GLOBALSTAR M082         
1 38042U 11080C   24284.61811116 -.00000092  00000+0  64988-4 0  9992
2 38042  52.0091  45.1902 0000809  64.9556 308.2665 12.62267406591987
GLOBALSTAR M092         
1 38043U 11080D   24284.51594417 -.00000082  00000+0  12058-3 0  9993
2 38043  52.0065 135.8671 0000743  83.0312 305.8203 12.62267455590421
GLOBALSTAR M090         
1 38044U 11080E   24284.50419946 -.00000099  00000+0  24365-4 0  9999
2 38044  51.9905  39.6670 0000731  83.7510  11.7736 12.62268325592127
GLOBALSTAR M086         
1 38045U 11080F   24284.59147554 -.00000091  00000+0  74058-4 0  9998
2 38045  51.9917  39.9320 0001610 117.3240 255.6042 12.62268019592047
GLOBALSTAR M097         
1 39072U 13005A   24284.45706506 -.00000054  00000+0  27898-3 0  9999
2 39072  52.0057 314.6416 0000668  85.4772 274.6171 12.62271537539270
GLOBALSTAR M093         
1 39073U 13005B   24284.74699143 -.00000072  00000+0  17504-3 0  9993
2 39073  51.9814 307.4581 0000668  75.9073 284.1868 12.62265307539380
GLOBALSTAR M094         
1 39074U 13005C   24284.50946591 -.00000076  00000+0  15405-3 0  9992
2 39074  51.9948 222.3113 0000920  66.8941 293.2022 12.62269203540844
GLOBALSTAR M096         
1 39075U 13005D   24284.36429745 -.00000064  00000+0  22434-3 0  9991
2 39075  52.0064 271.0739 0000810  62.4026 297.6923 12.62271347539742
GLOBALSTAR M078         
1 39076U 13005E   24284.49596724 -.00000067  00000+0  20571-3 0  9991
2 39076  51.9903 355.5206 0000876  19.2482 340.8418 12.62274076538389
GLOBALSTAR M095         
1 39077U 13005F   24284.44352889 -.00000067  00000+0  20521-3 0  9994
2 39077  51.9828 353.0035 0000841  60.9235 299.1716 12.62265805538231
GLOBALSTAR M087         
1 52888U 22064A   24284.40552290 -.00000034  00000+0  17850-3 0  9993
2 52888  51.9750 166.6164 0008739 300.5646  59.4392 13.37589222112942
